STARLINK-2032           
1 47649U 21012AF  26068.05276662  .00102351  00000+0  99602-3 0  9992
2 47649  53.0435  17.0799 0010256  79.1502 281.0667 15.65431979280700
STARLINK-11287 [DTC]    
1 60998U 24158J   26068.82189207 -.00002217  00000+0 -13451-4 0  9992
2 60998  53.1597 280.7399 0000841  60.1114 299.9987 15.69705376 87601
